OBJECT_NAME,OBJECT_ID,EPOCH,MEAN_MOTION,ECCENTRICITY,INCLINATION,RA_OF_ASC_NODE,ARG_OF_PERICENTER,MEAN_ANOMALY,EPHEMERIS_TYPE,CLASSIFICATION_TYPE,NORAD_CAT_ID,ELEMENT_SET_NO,REV_AT_EPOCH,BSTAR,MEAN_MOTION_DOT,MEAN_MOTION_DDOT
LAOSAT 1,2015-067A,2026-07-01T00:57:11.362176,1.00269336,.0002477,0.0491,206.7126,208.5432,6.6295,0,U,41034,999,3899,0,-.332E-5,0
TELSTAR 12V,2015-068A,2026-07-01T03:41:33.122112,1.00269624,.0002568,0.0267,37.0342,60.2706,222.3110,0,U,41036,999,3876,0,0,0
ELEKTRO-L 2,2015-074A,2026-06-30T03:05:16.247328,1.00271247,.0000706,6.7257,70.3668,276.5342,323.0657,0,U,41105,999,3863,0,-.112E-5,0
COSMOS 2513,2015-075A,2026-07-01T04:08:45.512736,1.00269937,.0003337,0.0693,102.1065,336.0950,343.4555,0,U,41121,999,3868,0,-.127E-5,0
EXPRESS-AMU1,2015-082A,2026-06-30T12:32:13.391808,1.00273994,.00030105,0.0216,68.7845,32.7700,41.1823,0,U,41191,999,3840,0,.166E-5,0
GAOFEN-4,2015-083A,2026-07-01T01:19:38.525664,1.00268978,.0004238,0.3924,83.8480,111.8282,209.0303,0,U,41194,999,3866,0,-.324E-5,0
BELINTERSAT-1,2016-001A,2026-07-01T04:00:31.303008,1.00274548,.0001538,0.0391,84.2823,357.5002,309.0357,0,U,41238,999,3837,0,0,0
IRNSS-1E,2016-003A,2026-06-29T19:51:21.425184,1.00272765,.00192006,33.2608,59.5670,178.7998,89.1855,0,U,41241,999,3820,0,-.31E-5,0
EUTELSAT 9B,2016-005A,2026-07-01T00:23:07.127808,1.00271354,.0001667,0.0544,68.0201,6.0167,219.8053,0,U,41310,999,3825,0,.72E-6,0
SES-9,2016-013A,2026-07-01T00:51:19.423872,1.00270235,.0002576,0.0177,323.1694,125.2064,311.8486,0,U,41380,999,3757,0,-.334E-5,0
EUTELSAT 65 WEST A,2016-014A,2026-07-01T01:00:45.940032,1.00270405,.0002784,0.0861,301.7457,158.0042,129.3389,0,U,41382,999,3766,0,-.266E-5,0
IRNSS-1F,2016-015A,2026-06-30T22:47:05.917056,1.00274481,.0017436,5.3827,96.4688,184.1091,12.6324,0,U,41384,999,3780,0,.164E-5,0
BEIDOU-2 IGSO-6,2016-021A,2026-06-26T02:38:38.671584,1.00258926,.0057558,60.2385,37.9495,231.0163,137.2672,0,U,41434,999,3757,0,-.145E-5,0
IRNSS-1G,2016-027A,2026-06-30T16:24:05.094720,1.00280808,.00058067,5.2280,97.1626,4.8233,192.2540,0,U,41469,999,3731,0,-.327E-5,0
JCSAT-2B,2016-028A,2026-07-01T03:46:38.647200,1.00274685,.0001184,0.0186,15.5025,115.3353,359.0461,0,U,41471,999,3727,0,-.154E-5,0
THAICOM 8,2016-031A,2026-07-01T04:08:15.561312,1.00272507,.0003735,0.0516,25.8792,42.3694,351.5401,0,U,41552,999,3685,0,-.111E-5,0
INTELSAT 31 (IS-31),2016-035A,2026-07-01T04:55:38.682048,1.00270226,.0000646,0.0193,279.4145,4.6347,334.0666,0,U,41581,999,3682,0,-.14E-5,0
BEIDOU-2 G7,2016-037A,2026-07-01T01:19:38.525664,1.00270345,.0006794,1.7532,69.4272,3.1720,336.9759,0,U,41586,999,702,0,-.344E-5,0
ABS-2A (MONGOLSAT-1),2016-038A,2026-07-01T04:07:08.169312,1.00268217,.0001749,0.0272,22.8096,24.1536,8.7968,0,U,41588,999,3684,0,0,0
EUTELSAT 117 WEST B,2016-038B,2026-06-30T23:47:11.816736,1.00269383,.0000237,0.0226,113.5347,125.0097,280.3059,0,U,41589,999,3680,0,-.1E-7,0
BRISAT,2016-039A,2026-06-30T23:20:47.687424,1.00268841,.0002223,0.0211,1.9390,91.6343,326.1522,0,U,41591,999,3674,0,0,0
ECHOSTAR 18,2016-039B,2026-07-01T01:45:41.493024,1.00269428,.0001761,0.0256,33.7704,70.6788,139.7453,0,U,41592,999,3676,0,0,0
MUOS-5,2016-041A,2026-07-01T04:21:38.562048,1.00272702,.0198388,2.1745,301.9096,260.5744,36.9945,0,U,41622,999,3722,0,-.116E-5,0
TIANTONG-1 1,2016-048A,2026-07-01T02:32:05.368416,1.00269149,.0005897,3.8745,43.5233,52.9515,322.1093,0,U,41725,999,3641,0,-.309E-5,0
JCSAT-16,2016-050A,2026-06-30T19:53:35.619936,1.00287418,.0002058,0.0179,18.2390,108.1310,234.8793,0,U,41729,999,3620,0,-.237E-5,0
USA 270,2016-052A,2026-06-25T15:01:47.554176,0.99500516,.0000668,4.2178,77.0981,157.1810,56.2495,0,U,41744,999,2821,0,-.284E-5,0
USA 271,2016-052B,2026-06-25T18:13:09.824736,0.99833204,.0001955,4.1909,77.1447,290.7679,281.9940,0,U,41745,999,2800,0,-.236E-5,0
INTELSAT 36 (IS-36),2016-053A,2026-07-01T04:05:23.335008,1.00270586,.00021,0.0104,16.3738,332.8834,59.8194,0,U,41747,999,3609,0,-.14E-6,0
INSAT-3DR,2016-054A,2026-07-01T02:24:13.620960,1.00272393,.0010057,0.1393,85.9865,186.5089,116.6999,0,U,41752,999,3595,0,-.67E-6,0
GSAT-18,2016-060A,2026-07-01T02:24:13.620960,1.00272125,.0005909,0.0473,93.2619,344.2940,311.6366,0,U,41793,999,3566,0,-.66E-6,0
SKY MUSTER 2 (NBN1B),2016-060B,2026-07-01T04:27:06.601248,1.00269946,.000178,0.0171,336.1416,122.7493,31.9254,0,U,41794,999,3566,0,-.234E-5,0
HIMAWARI-9,2016-064A,2026-07-01T04:18:38.400768,1.00268966,.0001355,0.0345,265.6813,213.6321,5.3269,0,U,41836,999,3535,0,-.265E-5,0
