LAOSAT 1                
1 41034U 15067A   26182.03971484 -.00000332  00000+0  00000+0 0  9993
2 41034   0.0491 206.7126 0002477 208.5432   6.6295  1.00269336 38993
TELSTAR 12V             
1 41036U 15068A   26182.15385558  .00000000  00000+0  00000+0 0  9991
2 41036   0.0267  37.0342 0002568  60.2706 222.3110  1.00269624 38767
ELEKTRO-L 2             
1 41105U 15074A   26181.12866027 -.00000112  00000+0  00000+0 0  9991
2 41105   6.7257  70.3668 0000706 276.5342 323.0657  1.00271247 38632
COSMOS 2513             
1 41121U 15075A   26182.17274899 -.00000127  00000+0  00000+0 0  9992
2 41121   0.0693 102.1065 0003337 336.0950 343.4555  1.00269937 38687
EXPRESS-AMU1            
1 41191U 15082A   26181.52237722  .00000166  00000+0  00000+0 0  9991
2 41191   0.0216  68.7845 0003010  32.7700  41.1823  1.00273994 38407
GAOFEN-4                
1 41194U 15083A   26182.05530701 -.00000324  00000+0  00000+0 0  9994
2 41194   0.3924  83.8480 0004238 111.8282 209.0303  1.00268978 38661
BELINTERSAT-1           
1 41238U 16001A   26182.16702897  .00000000  00000+0  00000+0 0  9993
2 41238   0.0391  84.2823 0001538 357.5002 309.0357  1.00274548 38378
IRNSS-1E                
1 41241U 16003A   26180.82733131 -.00000310  00000+0  00000+0 0  9990
2 41241  33.2608  59.5670 0019200 178.7998  89.1855  1.00272765 38208
EUTELSAT 9B             
1 41310U 16005A   26182.01605472  .00000072  00000+0  00000+0 0  9992
2 41310   0.0544  68.0201 0001667   6.0167 219.8053  1.00271354 38250
SES-9                   
1 41380U 16013A   26182.03564148 -.00000334  00000+0  00000+0 0  9996
2 41380   0.0177 323.1694 0002576 125.2064 311.8486  1.00270235 37574
EUTELSAT 65 WEST A      
1 41382U 16014A   26182.04219838 -.00000266  00000+0  00000+0 0  9997
2 41382   0.0861 301.7457 0002784 158.0042 129.3389  1.00270405 37669
IRNSS-1F                
1 41384U 16015A   26181.94937404  .00000164  00000+0  00000+0 0  9990
2 41384   5.3827  96.4688 0017436 184.1091  12.6324  1.00274481 37806
BEIDOU-2 IGSO-6         
1 41434U 16021A   26177.11016981 -.00000145  00000+0  00000+0 0  9995
2 41434  60.2385  37.9495 0057558 231.0163 137.2672  1.00258926 37578
IRNSS-1G                
1 41469U 16027A   26181.68339230 -.00000327  00000+0  00000+0 0  9993
2 41469   5.2280  97.1626 0005806   4.8233 192.2540  1.00280808 37317
JCSAT-2B                
1 41471U 16028A   26182.15739175 -.00000154  00000+0  00000+0 0  9990
2 41471   0.0186  15.5025 0001184 115.3353 359.0461  1.00274685 37277
THAICOM 8               
1 41552U 16031A   26182.17240233 -.00000111  00000+0  00000+0 0  9991
2 41552   0.0516  25.8792 0003735  42.3694 351.5401  1.00272507 36855
INTELSAT 31 (IS-31)     
1 41581U 16035A   26182.20530882 -.00000140  00000+0  00000+0 0  9995
2 41581   0.0193 279.4145 0000646   4.6347 334.0666  1.00270226 36823
BEIDOU-2 G7             
1 41586U 16037A   26182.05530701 -.00000344  00000+0  00000+0 0  9991
2 41586   1.7532  69.4272 0006794   3.1720 336.9759  1.00270345  7026
ABS-2A (MONGOLSAT-1)    
1 41588U 16038A   26182.17162233  .00000000  00000+0  00000+0 0  9996
2 41588   0.0272  22.8096 0001749  24.1536   8.7968  1.00268217 36844
EUTELSAT 117 WEST B     
1 41589U 16038B   26181.99110899 -.00000001  00000+0  00000+0 0  9999
2 41589   0.0226 113.5347 0000237 125.0097 280.3059  1.00269383 36805
BRISAT                  
1 41591U 16039A   26181.97277416  .00000000  00000+0  00000+0 0  9998
2 41591   0.0211   1.9390 0002223  91.6343 326.1522  1.00268841 36744
ECHOSTAR 18             
1 41592U 16039B   26182.07339691  .00000000  00000+0  00000+0 0  9995
2 41592   0.0256  33.7704 0001761  70.6788 139.7453  1.00269428 36767
MUOS-5                  
1 41622U 16041A   26182.18169632 -.00000116  00000+0  00000+0 0  9999
2 41622   2.1745 301.9096 0198388 260.5744  36.9945  1.00272702 37220
TIANTONG-1 1            
1 41725U 16048A   26182.10561769 -.00000309  00000+0  00000+0 0  9993
2 41725   3.8745  43.5233 0005897  52.9515 322.1093  1.00269149 36410
JCSAT-16                
1 41729U 16050A   26181.82888449 -.00000237  00000+0  00000+0 0  9995
2 41729   0.0179  18.2390 0002058 108.1310 234.8793  1.00287418 36202
USA 270                 
1 41744U 16052A   26176.62624484 -.00000284  00000+0  00000+0 0  9995
2 41744   4.2178  77.0981 0000668 157.1810  56.2495  0.99500516 28218
USA 271                 
1 41745U 16052B   26176.75914149 -.00000236  00000+0  00000+0 0  9997
2 41745   4.1909  77.1447 0001955 290.7679 281.9940  0.99833204 28007
INTELSAT 36 (IS-36)     
1 41747U 16053A   26182.17040897 -.00000014  00000+0  00000+0 0  9997
2 41747   0.0104  16.3738 0002100 332.8834  59.8194  1.00270586 36095
INSAT-3DR               
1 41752U 16054A   26182.10015765 -.00000067  00000+0  00000+0 0  9991
2 41752   0.1393  85.9865 0010057 186.5089 116.6999  1.00272393 35958
GSAT-18                 
1 41793U 16060A   26182.10015765 -.00000066  00000+0  00000+0 0  9992
2 41793   0.0473  93.2619 0005909 344.2940 311.6366  1.00272125 35665
SKY MUSTER 2 (NBN1B)    
1 41794U 16060B   26182.18549307 -.00000234  00000+0  00000+0 0  9992
2 41794   0.0171 336.1416 0001780 122.7493  31.9254  1.00269946 35665
HIMAWARI-9              
1 41836U 16064A   26182.17961112 -.00000265  00000+0  00000+0 0  9998
2 41836   0.0345 265.6813 0001355 213.6321   5.3269  1.00268966 35358
